STARLINK-31312          
1 59152U 24044A   26080.02088342  .00002235  00000+0  90697-4 0  9995
2 59152  43.0046 352.3339 0001632 263.0630  97.0036 15.27585633115918
STARLINK-31308          
1 59153U 24044B   26079.97946197  .00003839  00000+0  14908-3 0  9990
2 59153  42.9996 356.4321 0000986 276.7413  83.3326 15.27553575115873
STARLINK-31270          
1 59154U 24044C   26080.19144586  .00000054  00000+0  11497-4 0  9996
2 59154  43.0070  42.1545 0000870 271.1642  88.9110 15.27589950115352
STARLINK-31341          
1 59155U 24044D   26080.20508906  .00004887  00000+0  18695-3 0  9993
2 59155  43.0018  45.7038 0001230 290.1607  69.9112 15.27585348115284
STARLINK-31338          
1 59156U 24044E   26079.93969270 -.00000267  00000+0 -19221-6 0  9996
2 59156  43.0032  47.1513 0000523 274.6160  85.4632 15.27580905115240
STARLINK-31334          
1 59157U 24044F   26080.19352100  .00001070  00000+0  48381-4 0  9993
2 59157  43.0045  45.6123 0001118 273.3752  86.6972 15.27585086115288
STARLINK-31297          
1 59158U 24044G   26080.19528629 -.00011632  00000+0 -41294-3 0  9997
2 59158  43.0030  42.1869 0001730 272.2805  87.7848 15.27648075115359
STARLINK-31182          
1 59159U 24044H   26080.15803319 -.00000472  00000+0 -76089-5 0  9998
2 59159  43.0057  41.9050 0001711 248.9727 111.0942 15.27579108115356
STARLINK-31327          
1 59160U 24044J   26080.19786408  .00006090  00000+0  23075-3 0  9998
2 59160  43.0005  42.2029 0000192 133.8584 226.2283 15.27561381115357
STARLINK-31256          
1 59161U 24044K   26080.16188621  .00000766  00000+0  37349-4 0  9993
2 59161  43.0034  41.9344 0001143 257.6201 102.4523 15.27587813115354
STARLINK-31272          
1 59162U 24044L   26080.16574051  .00001585  00000+0  67099-4 0  9995
2 59162  43.0035  41.9624 0001034 263.2627  96.8107 15.27585022115322
STARLINK-31278          
1 59163U 24044M   26080.16959865 -.00003161  00000+0 -10538-3 0  9995
2 59163  43.0025  41.9879 0001453 267.8879  92.1806 15.27580537115329
STARLINK-31309          
1 59164U 24044N   26080.17345314  .00000071  00000+0  12118-4 0  9997
2 59164  43.0038  42.0226 0002208 267.8412  92.2187 15.27573260115355
STARLINK-31325          
1 59165U 24044P   26080.17602070  .00002955  00000+0  11688-3 0  9996
2 59165  43.0003  42.0428 0000444 282.5442  77.5360 15.27572909115324
STARLINK-31342          
1 59166U 24044Q   26079.78756817 -.00001401  00000+0 -41410-4 0  9995
2 59166  42.9998  44.2845 0000623 323.6730  36.4079 15.27573748115298
STARLINK-31298          
1 59167U 24044R   26080.18372862  .00001204  00000+0  53256-4 0  9996
2 59167  43.0036  42.0949 0000737 274.6526  85.4241 15.27586906115328
STARLINK-31322          
1 59168U 24044S   26079.94789573 -.00000543  00000+0 -10212-4 0  9992
2 59168  43.0054  43.7638 0000967 273.8097  86.2644 15.27569549115310
STARLINK-31329          
1 59169U 24044T   26080.20171509  .00000840  00000+0  40024-4 0  9990
2 59169  43.0007  42.2290 0000932 300.1027  59.9733 15.27585394115329
STARLINK-31340          
1 59170U 24044U   26080.07086115  .00018981  00000+0  69621-3 0  9993
2 59170  43.0000   3.1982 0001945 278.0601  82.0030 15.27641251115764
STARLINK-31344          
1 59171U 24044V   26079.94403214 -.00000559  00000+0 -10800-4 0  9991
2 59171  43.0076  43.7323 0000883 262.9338  97.1413 15.27578566115317
STARLINK-31348          
1 59172U 24044W   26080.04613433  .00047248  00000+0  17156-2 0  9994
2 59172  43.0024 356.0746 0001402 272.7803  87.2888 15.27578189115849
STARLINK-31289          
1 59173U 24044X   26080.18758545  .00000147  00000+0  14857-4 0  9998
2 59173  43.0049  42.1211 0000512 279.8125  80.2669 15.27581676115354
STARLINK-31283          
1 59174U 24044Y   26080.16667824  .00063160  00000+0  22878-2 0  9990
2 59174  43.0023 355.2991 0001926 261.0936  85.2392 15.27541852  5632
EXO-0                   
1 59175U 23174DK  26080.19901405  .00011070  00000+0  34835-3 0  9993
2 59175  97.3856 160.3779 0010672 120.6367 239.5929 15.33059430131558
STARLINK-31439          
1 59178U 24045A   26079.96299619  .00000225  00000+0  17704-4 0  9991
2 59178  43.0037  25.5813 0001200 255.1742 104.8976 15.27581616 51252
STARLINK-31410          
1 59179U 24045B   26079.89583495  .00001455  00000+0  62393-4 0  9992
2 59179  43.0039  29.3933 0001227 273.4256  86.6456 15.27570256114878
STARLINK-31395          
1 59180U 24045C   26079.59074975 -.00000112  00000+0  54508-5 0  9999
2 59180  43.0079  31.4021 0001646 258.4785 101.5882 15.27573579114827
STARLINK-31486          
1 59181U 24045D   26079.90146033  .00000026  00000+0  10491-4 0  9995
2 59181  43.0062  25.9780 0001332 269.6424  90.4275 15.27574340114915
STARLINK-31411          
1 59182U 24045E   26080.12523489  .00004007  00000+0  15500-3 0  9994
2 59182  43.0046  27.6734 0001403 264.5301  95.5390 15.27593485114918
STARLINK-31382          
1 59184U 24045G   26080.12010732  .00001577  00000+0  66815-4 0  9993
2 59184  43.0055  27.6356 0001445 265.7514  94.3173 15.27587028114917
