OBJECT_NAME,OBJECT_ID,EPOCH,MEAN_MOTION,ECCENTRICITY,INCLINATION,RA_OF_ASC_NODE,ARG_OF_PERICENTER,MEAN_ANOMALY,EPHEMERIS_TYPE,CLASSIFICATION_TYPE,NORAD_CAT_ID,ELEMENT_SET_NO,REV_AT_EPOCH,BSTAR,MEAN_MOTION_DOT,MEAN_MOTION_DDOT
STARLINK-31312,2024-044A,2026-03-21T00:30:04.327488,15.27585633,.00016321,43.0046,352.3339,263.0630,97.0036,0,U,59152,999,11591,.90697476E-4,.2235E-4,0
STARLINK-31308,2024-044B,2026-03-20T23:30:25.514208,15.27553575,.00009861,42.9996,356.4321,276.7413,83.3326,0,U,59153,999,11587,.14907539E-3,.3839E-4,0
STARLINK-31270,2024-044C,2026-03-21T04:35:40.922304,15.27589950,.00008703,43.0070,42.1545,271.1642,88.9110,0,U,59154,999,11535,.11497304E-4,.54E-6,0
STARLINK-31341,2024-044D,2026-03-21T04:55:19.694784,15.27585348,.00012308,43.0018,45.7038,290.1607,69.9112,0,U,59155,999,11528,.18694995E-3,.4887E-4,0
STARLINK-31338,2024-044E,2026-03-20T22:33:09.449280,15.27580905,.00005237,43.0032,47.1513,274.6160,85.4632,0,U,59156,999,11524,-.19221E-6,-.267E-5,0
STARLINK-31334,2024-044F,2026-03-21T04:38:40.214400,15.27585086,.00011187,43.0045,45.6123,273.3752,86.6972,0,U,59157,999,11528,.48380595E-4,.107E-4,0
STARLINK-31297,2024-044G,2026-03-21T04:41:12.735456,15.27648075,.00017307,43.0030,42.1869,272.2805,87.7848,0,U,59158,999,11535,-.41293712E-3,-.11632E-3,0
STARLINK-31182,2024-044H,2026-03-21T03:47:34.067616,15.27579108,.00017112,43.0057,41.9050,248.9727,111.0942,0,U,59159,999,11535,-.7608931E-5,-.472E-5,0
STARLINK-31327,2024-044J,2026-03-21T04:44:55.456512,15.27561381,.00001924,43.0005,42.2029,133.8584,226.2283,0,U,59160,999,11535,.23074668E-3,.609E-4,0
STARLINK-31256,2024-044K,2026-03-21T03:53:06.968544,15.27587813,.00011432,43.0034,41.9344,257.6201,102.4523,0,U,59161,999,11535,.37349423E-4,.766E-5,0
STARLINK-31272,2024-044L,2026-03-21T03:58:39.980064,15.27585022,.00010344,43.0035,41.9624,263.2627,96.8107,0,U,59162,999,11532,.6709881E-4,.1585E-4,0
STARLINK-31278,2024-044M,2026-03-21T04:04:13.323360,15.27580537,.00014531,43.0025,41.9879,267.8879,92.1806,0,U,59163,999,11532,-.10538437E-3,-.3161E-4,0
STARLINK-31309,2024-044N,2026-03-21T04:09:46.351296,15.27573260,.00022089,43.0038,42.0226,267.8412,92.2187,0,U,59164,999,11535,.12118416E-4,.71E-6,0
STARLINK-31325,2024-044P,2026-03-21T04:13:28.188480,15.27572909,.00004449,43.0003,42.0428,282.5442,77.5360,0,U,59165,999,11532,.1168835E-3,.2955E-4,0
STARLINK-31342,2024-044Q,2026-03-20T18:54:05.889888,15.27573748,.00006233,42.9998,44.2845,323.6730,36.4079,0,U,59166,999,11529,-.41409949E-4,-.1401E-4,0
STARLINK-31298,2024-044R,2026-03-21T04:24:34.152768,15.27586906,.00007376,43.0036,42.0949,274.6526,85.4241,0,U,59167,999,11532,.53255722E-4,.1204E-4,0
STARLINK-31322,2024-044S,2026-03-20T22:44:58.191072,15.27569549,.0000967,43.0054,43.7638,273.8097,86.2644,0,U,59168,999,11531,-.10212327E-4,-.543E-5,0
STARLINK-31329,2024-044T,2026-03-21T04:50:28.183776,15.27585394,.00009329,43.0007,42.2290,300.1027,59.9733,0,U,59169,999,11532,.40024468E-4,.84E-5,0
STARLINK-31340,2024-044U,2026-03-21T01:42:02.403360,15.27641251,.00019453,43.0000,3.1982,278.0601,82.0030,0,U,59170,999,11576,.69621148E-3,.18981E-3,0
STARLINK-31344,2024-044V,2026-03-20T22:39:24.376896,15.27578566,.00008832,43.0076,43.7323,262.9338,97.1413,0,U,59171,999,11531,-.10799964E-4,-.559E-5,0
STARLINK-31348,2024-044W,2026-03-21T01:06:26.006112,15.27578189,.00014026,43.0024,356.0746,272.7803,87.2888,0,U,59172,999,11584,.17156073E-2,.47248E-3,0
STARLINK-31289,2024-044X,2026-03-21T04:30:07.382880,15.27581676,.0000512,43.0049,42.1211,279.8125,80.2669,0,U,59173,999,11535,.14857034E-4,.147E-5,0
STARLINK-31283,2024-044Y,2026-03-21T04:00:00.999936,15.27541852,.00019263,43.0023,355.2991,261.0936,85.2392,0,U,59174,999,563,.22877641E-2,.6316E-3,0
EXO-0,2023-174DK,2026-03-21T04:46:34.813920,15.33059430,.00106725,97.3856,160.3779,120.6367,239.5929,0,U,59175,999,13155,.34835331E-3,.1107E-3,0
STARLINK-31439,2024-045A,2026-03-20T23:06:42.870816,15.27581616,.00012009,43.0037,25.5813,255.1742,104.8976,0,U,59178,999,5125,.17703578E-4,.225E-5,0
STARLINK-31410,2024-045B,2026-03-20T21:30:00.139680,15.27570256,.00012273,43.0039,29.3933,273.4256,86.6456,0,U,59179,999,11487,.62392937E-4,.1455E-4,0
STARLINK-31395,2024-045C,2026-03-20T14:10:40.778400,15.27573579,.0001646,43.0079,31.4021,258.4785,101.5882,0,U,59180,999,11482,.54508E-5,-.112E-5,0
STARLINK-31486,2024-045D,2026-03-20T21:38:06.172512,15.27574340,.00013321,43.0062,25.9780,269.6424,90.4275,0,U,59181,999,11491,.10490753E-4,.26E-6,0
STARLINK-31411,2024-045E,2026-03-21T03:00:20.294496,15.27593485,.00014039,43.0046,27.6734,264.5301,95.5390,0,U,59182,999,11491,.15500197E-3,.4007E-4,0
STARLINK-31382,2024-045G,2026-03-21T02:52:57.272448,15.27587028,.00014454,43.0055,27.6356,265.7514,94.3173,0,U,59184,999,11491,.66815108E-4,.1577E-4,0
